[{"OBJECT_NAME":"OBJECT B","OBJECT_ID":"2024-205B","EPOCH":"2026-03-09T23:46:05.115936","MEAN_MOTION":15.28158697,"ECCENTRICITY":0.00105957,"INCLINATION":97.4192,"RA_OF_ASC_NODE":146.9311,"ARG_OF_PERICENTER":34.0947,"MEAN_ANOMALY":326.0972,"EPHEMERIS_TYPE":0,"CLASSIFICATION_TYPE":"U","NORAD_CAT_ID":61895,"ELEMENT_SET_NO":999,"REV_AT_EPOCH":7352,"BSTAR":0.00054154807,"MEAN_MOTION_DOT":0.00014827,"MEAN_MOTION_DDOT":0},{"OBJECT_NAME":"STARLINK-36444","OBJECT_ID":"2026-012AE","EPOCH":"2026-03-08T16:57:00.573696","MEAN_MOTION":15.27614984,"ECCENTRICITY":0.0001132,"INCLINATION":42.9989,"RA_OF_ASC_NODE":319.758,"ARG_OF_PERICENTER":263.0091,"MEAN_ANOMALY":97.0632,"EPHEMERIS_TYPE":0,"CLASSIFICATION_TYPE":"U","NORAD_CAT_ID":67521,"ELEMENT_SET_NO":999,"REV_AT_EPOCH":761,"BSTAR":0.0019473475,"MEAN_MOTION_DOT":0.00053774,"MEAN_MOTION_DDOT":0}]
